QIANFAN-73              
1 63159U 25046A   25245.50700451  .00000242  00000+0  35566-3 0  9996
2 63159  88.9858 330.4724 0016437  62.7203 297.5620 13.50968509 33740
QIANFAN-74              
1 63160U 25046B   25245.56453088  .00000261  00000+0  38605-3 0  9993
2 63160  88.9857 330.3549 0002121 109.3476 250.7905 13.50974162 33817
QIANFAN-75              
1 63161U 25046C   25245.55230232  .00000254  00000+0  37466-3 0  9993
2 63161  88.9858 330.5882 0017617  65.1912 295.1069 13.50970512 33685
QIANFAN-76              
1 63162U 25046D   25245.54809411  .00000247  00000+0  36330-3 0  9995
2 63162  88.9858 330.5697 0015215  66.7009 293.5741 13.50966872 33690
QIANFAN-77              
1 63163U 25046E   25245.55332311  .00000663  00000+0  47355-3 0  9998
2 63163  88.9854 329.4068 0015789  44.8359 315.4091 13.96032926 34335
QIANFAN-78              
1 63164U 25046F   25245.58930688  .00000254  00000+0  37493-3 0  9991
2 63164  88.9857 330.4307 0016641  68.1604 292.1315 13.50970220 33772
QIANFAN-79              
1 63165U 25046G   25245.54390986  .00000248  00000+0  36475-3 0  9991
2 63165  88.9861 330.5388 0016281  66.8606 293.4259 13.50972390 33710
QIANFAN-80              
1 63166U 25046H   25245.56048469  .00000262  00000+0  38719-3 0  9999
2 63166  88.9858 330.2469 0015386  71.0816 289.2001 13.50972322 33870
